[{"OBJECT_NAME":"STARLINK-2082","OBJECT_ID":"2021-005U","EPOCH":"2026-03-10T00:00:02.999808","MEAN_MOTION":15.10665418,"ECCENTRICITY":0.00013063,"INCLINATION":53.0689,"RA_OF_ASC_NODE":60.189,"ARG_OF_PERICENTER":118.0574,"MEAN_ANOMALY":150.7712,"EPHEMERIS_TYPE":0,"CLASSIFICATION_TYPE":"U","NORAD_CAT_ID":47367,"ELEMENT_SET_NO":999,"REV_AT_EPOCH":534,"BSTAR":0.0045007601,"MEAN_MOTION_DOT":0.00075839,"MEAN_MOTION_DDOT":0},{"OBJECT_NAME":"UNKNOWN","OBJECT_ID":"","EPOCH":"2026-03-08T22:04:04.381824","MEAN_MOTION":14.54769338,"ECCENTRICITY":0.0296144,"INCLINATION":65.656,"RA_OF_ASC_NODE":44.0504,"ARG_OF_PERICENTER":173.1079,"MEAN_ANOMALY":187.4242,"EPHEMERIS_TYPE":0,"CLASSIFICATION_TYPE":"U","NORAD_CAT_ID":82180,"ELEMENT_SET_NO":999,"REV_AT_EPOCH":61426,"BSTAR":0.0016597,"MEAN_MOTION_DOT":0.00012787,"MEAN_MOTION_DDOT":0}]
